STARLINK-1624_new
1 16130C 20057P   21326.09342568  .00002626  00000-0  17597-3 0  3261
2 16130  53.0529 118.3218 0001422  77.8418 181.4175 15.06388519    12
STARLINK-1624_old
1 26130C 20057P   21325.09776837  .00002647  00000-0  17740-3 0  3252
2 26130  53.0523 122.7913 0001450  77.6071 179.2303 15.06381567    15
